CTC1_L_00642007-03
1 81352U 25139ZT  26070.40841435  .00000000  00000+0  00000-0 0  9992
2 81352  65.0000 180.0000 0000000   0.0000 144.0000  3.78963984    18
CTC1_L_00642007-04
1 81353U 24555IZ  26070.40841435  .00000000  00000+0  00000-0 0  9994
2 81353  65.0000 180.0000 0000000   0.0000 180.0000  3.78963984    19
CTC1_L_00642007-05
1 81354U 26666GS  26070.40841435  .00000000  00000+0  00000-0 0  9990
2 81354  65.0000 180.0000 0000000   0.0000 216.0000  3.78963984    10
CTC1_L_00642007-06
1 81355U 22869FF  26070.40841435  .00000000  00000+0  00000-0 0  9992
2 81355  65.0000 180.0000 0000000   0.0000 252.0000  3.78963984    11
CTC1_L_00642007-07
1 81356U 22641TD  26070.40841435  .00000000  00000+0  00000-0 0  9991
2 81356  65.0000 180.0000 0000000   0.0000 288.0000  3.78963984    11
CTC1_L_00642007-08
1 81357U 25577NK  26070.40841435  .00000000  00000+0  00000-0 0  9993
2 81357  65.0000 180.0000 0000000   0.0000 324.0000  3.78963984    13
CTC1_L_00642007-09
1 81358U 22629GJ  26070.40841435  .00000000  00000+0  00000-0 0  9999
2 81358  65.0000 180.0000 0000000   0.0000   0.0000  3.78963984    15
CTC1_L_00642007-10
1 81359U 24158RR  26070.40841435  .00000000  00000+0  00000-0 0  9999
2 81359  65.0000 180.0000 0000000   0.0000  36.0000  3.78963984    15
CTC1_L_00642008-01
1 81360U 26227IP  26070.40841435  .00000000  00000+0  00000-0 0  9990
2 81360  65.0000 210.0000 0000000   0.0000  84.0000  3.78963984    14
CTC1_L_00642008-02
1 81361U 24167KR  26070.40841435  .00000000  00000+0  00000-0 0  9992
2 81361  65.0000 210.0000 0000000   0.0000 120.0000  3.78963984    16
CTC1_L_00642008-03
1 81362U 24053EB  26070.40841435  .00000000  00000+0  00000-0 0  9997
2 81362  65.0000 210.0000 0000000   0.0000 156.0000  3.78963984    16
CTC1_L_00642008-04
1 81363U 26916QG  26070.40841435  .00000000  00000+0  00000-0 0  9998
2 81363  65.0000 210.0000 0000000   0.0000 192.0000  3.78963984    17
CTC1_L_00642008-05
1 81364U 22500BO  26070.40841435  .00000000  00000+0  00000-0 0  9994
2 81364  65.0000 210.0000 0000000   0.0000 228.0000  3.78963984    18
CTC1_L_00642008-06
1 81365U 22540KS  26070.40841435  .00000000  00000+0  00000-0 0  9999
2 81365  65.0000 210.0000 0000000   0.0000 264.0000  3.78963984    19
CTC1_L_00642008-07
1 81366U 25073OE  26070.40841435  .00000000  00000+0  00000-0 0  9994
2 81366  65.0000 210.0000 0000000   0.0000 300.0000  3.78963984    11
CTC1_L_00642008-08
1 81367U 23805AI  26070.40841435  .00000000  00000+0  00000-0 0  9996
2 81367  65.0000 210.0000 0000000   0.0000 336.0000  3.78963984    11
CTC1_L_00642008-09
1 81368U 25709MI  26070.40841435  .00000000  00000+0  00000-0 0  9992
2 81368  65.0000 210.0000 0000000   0.0000  12.0000  3.78963984    13
CTC1_L_00642008-10
1 81369U 24485F   26070.40841435  .00000000  00000+0  00000-0 0  9993
2 81369  65.0000 210.0000 0000000   0.0000  48.0000  3.78963984    13
CTC1_L_00642009-01
1 81370U 23935NX  26070.40841435  .00000000  00000+0  00000-0 0  9994
2 81370  65.0000 240.0000 0000000   0.0000  96.0000  3.78963984    11
CTC1_L_00642009-02
1 81371U 24090SX  26070.40841435  .00000000  00000+0  00000-0 0  9998
2 81371  65.0000 240.0000 0000000   0.0000 132.0000  3.78963984    13
CTC1_L_00642009-03
1 81372U 24957AF  26070.40841435  .00000000  00000+0  00000-0 0  9991
2 81372  65.0000 240.0000 0000000   0.0000 168.0000  3.78963984    13
CTC1_L_00642009-04
1 81373U 23291EV  26070.40841435  .00000000  00000+0  00000-0 0  9992
2 81373  65.0000 240.0000 0000000   0.0000 204.0000  3.78963984    15
CTC1_L_00642009-05
1 81374U 24485IP  26070.40841435  .00000000  00000+0  00000-0 0  9999
2 81374  65.0000 240.0000 0000000   0.0000 240.0000  3.78963984    16
CTC1_L_00642009-06
1 81375U 24507OW  26070.40841435  .00000000  00000+0  00000-0 0  9995
2 81375  65.0000 240.0000 0000000   0.0000 276.0000  3.78963984    16
CTC1_L_00642009-07
1 81376U 25842GW  26070.40841435  .00000000  00000+0  00000-0 0  9999
2 81376  65.0000 240.0000 0000000   0.0000 312.0000  3.78963984    18
CTC1_L_00642009-08
1 81377U 23919WH  26070.40841435  .00000000  00000+0  00000-0 0  9993
2 81377  65.0000 240.0000 0000000   0.0000 348.0000  3.78963984    18
CTC1_L_00642009-09
1 81378U 24118NL  26070.40841435  .00000000  00000+0  00000-0 0  9996
2 81378  65.0000 240.0000 0000000   0.0000  24.0000  3.78963984    10
CTC1_L_00642009-10
1 81379U 24769TD  26070.40841435  .00000000  00000+0  00000-0 0  9999
2 81379  65.0000 240.0000 0000000   0.0000  60.0000  3.78963984    11
CTC1_L_00642010-01
1 81380U 22818KE  26070.40841435  .00000000  00000+0  00000-0 0  9994
2 81380  65.0000 270.0000 0000000   0.0000 108.0000  3.78963984    19
CTC1_L_00642010-02
1 81381U 24316CG  26070.40841435  .00000000  00000+0  00000-0 0  9990
2 81381  65.0000 270.0000 0000000   0.0000 144.0000  3.78963984    10
CTC1_L_00642010-03
1 81382U 23468JB  26070.40841435  .00000000  00000+0  00000-0 0  9998
2 81382  65.0000 270.0000 0000000   0.0000 180.0000  3.78963984    11
CTC1_L_00642010-04
1 81383U 25725YB  26070.40841435  .00000000  00000+0  00000-0 0  9997
2 81383  65.0000 270.0000 0000000   0.0000 216.0000  3.78963984    12
CTC1_L_00642010-05
1 81384U 25313SG  26070.40841435  .00000000  00000+0  00000-0 0  9991
2 81384  65.0000 270.0000 0000000   0.0000 252.0000  3.78963984    13
CTC1_L_00642010-06
1 81385U 24558FL  26070.40841435  .00000000  00000+0  00000-0 0  9992
2 81385  65.0000 270.0000 0000000   0.0000 288.0000  3.78963984    13
CTC1_L_00642010-07
1 81386U 22921WQ  26070.40841435  .00000000  00000+0  00000-0 0  9995
2 81386  65.0000 270.0000 0000000   0.0000 324.0000  3.78963984    15
CTC1_L_00642010-08
1 81387U 22445XN  26070.40841435  .00000000  00000+0  00000-0 0  9997
2 81387  65.0000 270.0000 0000000   0.0000   0.0000  3.78963984    17
CTC1_L_00642010-09
1 81388U 24253RV  26070.40841435  .00000000  00000+0  00000-0 0  9997
2 81388  65.0000 270.0000 0000000   0.0000  36.0000  3.78963984    17
CTC1_L_00642010-10
1 81389U 24746VX  26070.40841435  .00000000  00000+0  00000-0 0  9995
2 81389  65.0000 270.0000 0000000   0.0000  72.0000  3.78963984    18
CTC1_L_00642011-01
1 81390U 26999ES  26070.40841435  .00000000  00000+0  00000-0 0  9999
2 81390  65.0000 300.0000 0000000   0.0000 120.0000  3.78963984    18
CTC1_L_00642011-02
1 81391U 25787TH  26070.40841435  .00000000  00000+0  00000-0 0  9994
2 81391  65.0000 300.0000 0000000   0.0000 156.0000  3.78963984    18
CTC1_L_00642011-03
1 81392U 26597UZ  26070.40841435  .00000000  00000+0  00000-0 0  9995
2 81392  65.0000 300.0000 0000000   0.0000 192.0000  3.78963984    19
CTC1_L_00642011-04
1 81393U 24746OM  26070.40841435  .00000000  00000+0  00000-0 0  9990
2 81393  65.0000 300.0000 0000000   0.0000 228.0000  3.78963984    10
CTC1_L_00642011-05
1 81394U 22426H   26070.40841435  .00000000  00000+0  00000-0 0  9994
2 81394  65.0000 300.0000 0000000   0.0000 264.0000  3.78963984    11
CTC1_L_00642011-06
1 81395U 25688RI  26070.40841435  .00000000  00000+0  00000-0 0  9998
2 81395  65.0000 300.0000 0000000   0.0000 300.0000  3.78963984    13
CTC1_L_00642011-07
1 81396U 25702MB  26070.40841435  .00000000  00000+0  00000-0 0  9996
2 81396  65.0000 300.0000 0000000   0.0000 336.0000  3.78963984    13
CTC1_L_00642011-08
1 81397U 26239QS  26070.40841435  .00000000  00000+0  00000-0 0  9993
2 81397  65.0000 300.0000 0000000   0.0000  12.0000  3.78963984    15
CTC1_L_00642011-09
1 81398U 23588RB  26070.40841435  .00000000  00000+0  00000-0 0  9998
2 81398  65.0000 300.0000 0000000   0.0000  48.0000  3.78963984    15
CTC1_L_00642011-10
1 81399U 22973MU  26070.40841435  .00000000  00000+0  00000-0 0  9996
2 81399  65.0000 300.0000 0000000   0.0000  84.0000  3.78963984    16
CTC1_L_00642012-01
1 81400U 25476SE  26070.40841435  .00000000  00000+0  00000-0 0  9990
2 81400  65.0000 330.0000 0000000   0.0000 132.0000  3.78963984    16
CTC1_L_00642012-02
1 81401U 22706HU  26070.40841435  .00000000  00000+0  00000-0 0  9994
2 81401  65.0000 330.0000 0000000   0.0000 168.0000  3.78963984    16
CTC1_L_00642012-03
1 81402U 24838RM  26070.40841435  .00000000  00000+0  00000-0 0  9993
2 81402  65.0000 330.0000 0000000   0.0000 204.0000  3.78963984    18
CTC1_L_00642012-04
1 81403U 25539HA  26070.40841435  .00000000  00000+0  00000-0 0  9993
2 81403  65.0000 330.0000 0000000   0.0000 240.0000  3.78963984    19
CTC1_L_00642012-05
1 81404U 22689OW  26070.40841435  .00000000  00000+0  00000-0 0  9997
2 81404  65.0000 330.0000 0000000   0.0000 276.0000  3.78963984    19
CTC1_L_00642012-06
1 81405U 24203SM  26070.40841435  .00000000  00000+0  00000-0 0  9992
2 81405  65.0000 330.0000 0000000   0.0000 312.0000  3.78963984    11
CTC1_L_00642012-07
1 81406U 23792AC  26070.40841435  .00000000  00000+0  00000-0 0  9995
2 81406  65.0000 330.0000 0000000   0.0000 348.0000  3.78963984    11
CTC1_L_00642012-08
1 81407U 22795OY  26070.40841435  .00000000  00000+0  00000-0 0  9998
2 81407  65.0000 330.0000 0000000   0.0000  24.0000  3.78963984    13
CTC1_L_00642012-09
1 81408U 26765UQ  26070.40841435  .00000000  00000+0  00000-0 0  9990
2 81408  65.0000 330.0000 0000000   0.0000  60.0000  3.78963984    14
CTC1_L_00642012-10
1 81409U 26525ZM  26070.40841435  .00000000  00000+0  00000-0 0  9995
2 81409  65.0000 330.0000 0000000   0.0000  96.0000  3.78963984    14
